     2              NAVIGATION DATA                         RINEX VERSION / TYPE
CCRINEXN V1.6.0 UX  CDDIS               02-MAY-20 19:31     PGM / RUN BY / DATE 
IGS BROADCAST EPHEMERIS FILE                                COMMENT             
    0.8382D-08  0.2235D-07 -0.5960D-07 -0.1192D-06          ION ALPHA           
    0.8602D+05  0.6554D+05 -0.1311D+06 -0.4588D+06          ION BETA            
   -0.186264514923D-08-0.710542735760D-14    61440     2104 DELTA-UTC: A0,A1,T,W
    18                                                      LEAP SECONDS        
                                                            END OF HEADER       
 9 20  5  1  6  0  0.0-0.208590179682D-03-0.750333128963D-11 0.000000000000D+00
    0.230000000000D+02-0.562500000000D+01 0.478912805784D-08 0.222351527251D+01
   -0.264495611191D-06 0.155411625747D-02 0.945851206779D-05 0.515374147224D+04
    0.453600000000D+06 0.167638063431D-07-0.637749304384D+00-0.100582838059D-06
    0.952740780243D+00 0.188375000000D+03 0.180518944728D+01-0.800890503161D-08
    0.161078138122D-09 0.100000000000D+01 0.210300000000D+04 0.000000000000D+00
    0.200000000000D+01 0.000000000000D+00 0.139698386192D-08 0.230000000000D+02
    0.446418000000D+06 0.400000000000D+01 0.000000000000D+00 0.000000000000D+00
10 20  5  1  6  0  0.0-0.327209010720D-03-0.118234311230D-10 0.000000000000D+00
    0.930000000000D+02-0.934687500000D+02 0.443089885044D-08-0.237929531401D+01
   -0.494532287121D-05 0.554988929070D-02 0.922381877899D-05 0.515367200661D+04
    0.453600000000D+06 0.651925802231D-07-0.167216380475D+01-0.117346644402D-06
    0.965086253750D+00 0.203312500000D+03-0.262995310797D+01-0.797354641593D-08
    0.525021869268D-10 0.100000000000D+01 0.210300000000D+04 0.000000000000D+00
    0.200000000000D+01 0.000000000000D+00 0.186264514923D-08 0.930000000000D+02
    0.450648000000D+06 0.400000000000D+01 0.000000000000D+00 0.000000000000D+00
11 20  5  1  6  0  0.0-0.289918854833D-03 0.108002495835D-10 0.000000000000D+00
    0.680000000000D+02 0.334375000000D+02 0.580845623123D-08-0.771152330047D+00
    0.161118805408D-05 0.159118524753D-01 0.403076410294D-05 0.515371622086D+04
    0.453600000000D+06-0.238418579102D-06 0.310079382135D+01-0.558793544769D-07
    0.912810675577D+00 0.281375000000D+03 0.197802788747D+01-0.916216735533D-08
    0.410017078857D-09 0.100000000000D+01 0.210300000000D+04 0.000000000000D+00
    0.200000000000D+01 0.000000000000D+00-0.125728547573D-07 0.680000000000D+02
    0.446418000000D+06 0.400000000000D+01 0.000000000000D+00 0.000000000000D+00
12 20  5  1  6  0  0.0 0.123072881252D-03-0.432009983342D-11 0.000000000000D+00
    0.360000000000D+02 0.354375000000D+02 0.393623538857D-08-0.170800196224D+01
    0.184588134289D-05 0.812161271460D-02 0.826455652714D-05 0.515370541763D+04
    0.453600000000D+06 0.240281224251D-06 0.154205199074D+01 0.372529029846D-07
    0.978401129923D+00 0.229937500000D+03 0.114492973672D+01-0.770032074927D-08
   -0.342157109360D-09 0.100000000000D+01 0.210300000000D+04 0.000000000000D+00
    0.200000000000D+01 0.000000000000D+00-0.125728547573D-07 0.360000000000D+02
    0.446418000000D+06 0.400000000000D+01 0.000000000000D+00 0.000000000000D+00
13 20  5  1  6  0  0.0 0.642379745841D-05 0.295585778076D-11 0.000000000000D+00
    0.860000000000D+02 0.116875000000D+02 0.456161858115D-08 0.111401955484D+01
    0.685453414917D-06 0.411666370928D-02 0.936165452004D-05 0.515365975571D+04
    0.453600000000D+06-0.104308128357D-06-0.495309084731D+00 0.800937414169D-07
    0.968003382621D+00 0.203875000000D+03 0.109952369123D+01-0.799497587998D-08
    0.194650965137D-09 0.100000000000D+01 0.210300000000D+04 0.000000000000D+00
    0.200000000000D+01 0.000000000000D+00-0.111758708954D-07 0.860000000000D+02
    0.446418000000D+06 0.400000000000D+01 0.000000000000D+00 0.000000000000D+00
14 20  5  1  6  0  0.0-0.160168856382D-04 0.250111042988D-11 0.000000000000D+00
    0.820000000000D+02 0.400000000000D+01 0.464519349095D-08 0.163578229900D+01
    0.335276126862D-07 0.113414751831D-01 0.986084342003D-05 0.515363756180D+04
    0.453600000000D+06-0.188127160072D-06-0.542086139012D+00-0.186264514923D-06
    0.960567846935D+00 0.192281250000D+03-0.191959000827D+01-0.797461788913D-08
    0.235724104569D-09 0.100000000000D+01 0.210300000000D+04 0.000000000000D+00
    0.200000000000D+01 0.000000000000D+00-0.977888703346D-08 0.820000000000D+02
    0.452608000000D+06 0.400000000000D+01 0.000000000000D+00 0.000000000000D+00
15 20  5  1  6  0  0.0-0.234276521951D-03 0.261479726760D-11 0.000000000000D+00
    0.109000000000D+03-0.156250000000D+00 0.551165815411D-08 0.102540629848D+01
    0.266358256340D-06 0.122434233781D-01 0.986456871033D-05 0.515367382050D+04
    0.453600000000D+06-0.147148966789D-06-0.726548561995D+00 0.132247805595D-06
    0.928212844728D+00 0.175625000000D+03 0.874139801054D+00-0.856535678149D-08
    0.825034365993D-10 0.100000000000D+01 0.210300000000D+04 0.000000000000D+00
    0.200000000000D+01 0.000000000000D+00-0.111758708954D-07 0.109000000000D+03
    0.446418000000D+06 0.400000000000D+01 0.000000000000D+00 0.000000000000D+00
18 20  5  1  6  0  0.0 0.175021123141D-03 0.127329258248D-10 0.000000000000D+00
    0.145000000000D+03-0.384062500000D+02 0.462090676503D-08 0.604872123809D-01
   -0.191293656826D-05 0.586000038311D-03 0.385753810406D-05 0.515434557915D+04
    0.453600000000D+06-0.447034835815D-07-0.269214262595D+01-0.409781932831D-07
    0.963599375999D+00 0.305062500000D+03 0.288558067602D+01-0.831391773662D-08
    0.179650340301D-09 0.100000000000D+01 0.210300000000D+04 0.000000000000D+00
    0.200000000000D+01 0.000000000000D+00-0.465661287308D-08 0.657000000000D+03
    0.446418000000D+06 0.400000000000D+01 0.000000000000D+00 0.000000000000D+00
19 20  5  1  6  0  0.0-0.164795666933D-03 0.511590769747D-11 0.000000000000D+00
    0.680000000000D+02 0.593437500000D+02 0.383337396113D-08-0.182059980585D+01
    0.348873436451D-05 0.937392550986D-02 0.623241066933D-05 0.515368765259D+04
    0.453600000000D+06 0.707805156708D-07 0.262219224124D+01 0.158324837685D-06
    0.982313764305D+00 0.265906250000D+03 0.160165801587D+01-0.780246786125D-08
    0.258939357292D-09 0.100000000000D+01 0.210300000000D+04 0.000000000000D+00
    0.200000000000D+01 0.000000000000D+00-0.153668224812D-07 0.680000000000D+02
    0.446418000000D+06 0.400000000000D+01 0.000000000000D+00 0.000000000000D+00
20 20  5  1  6  0  0.0 0.527753029019D-03 0.000000000000D+00 0.000000000000D+00
    0.400000000000D+02-0.957812500000D+02 0.522093175848D-08-0.813898478870D+00
   -0.503472983837D-05 0.506066915113D-02 0.784918665886D-05 0.515364597702D+04
    0.453600000000D+06 0.931322574616D-08-0.180217830837D+01-0.316649675369D-07
    0.933440341103D+00 0.212718750000D+03 0.265025806419D+01-0.848713923770D-08
    0.717887045734D-10 0.100000000000D+01 0.210300000000D+04 0.000000000000D+00
    0.200000000000D+01 0.000000000000D+00-0.884756445885D-08 0.400000000000D+02
    0.446442000000D+06 0.400000000000D+01 0.000000000000D+00 0.000000000000D+00
21 20  5  1  6  0  0.0-0.718282535672D-05 0.488853402203D-11 0.000000000000D+00
    0.470000000000D+02-0.224375000000D+02 0.467840916023D-08-0.207955574952D+01
   -0.558793544769D-06 0.246651149355D-01 0.304915010929D-05 0.515352105141D+04
    0.453600000000D+06 0.193715095520D-06-0.278315732231D+01 0.376254320145D-06
    0.952997822265D+00 0.310781250000D+03-0.133450693678D+01-0.811890961374D-08
    0.245724521127D-09 0.100000000000D+01 0.210300000000D+04 0.000000000000D+00
    0.200000000000D+01 0.000000000000D+00-0.102445483208D-07 0.470000000000D+02
    0.446418000000D+06 0.400000000000D+01 0.000000000000D+00 0.000000000000D+00
22 20  5  1  6  0  0.0-0.783597119152D-03 0.909494701773D-12 0.000000000000D+00
    0.240000000000D+02-0.107312500000D+03 0.537343811098D-08 0.992023129654D+00
   -0.561028718948D-05 0.722056371160D-02 0.735744833946D-05 0.515351833534D+04
    0.453600000000D+06 0.558793544769D-08-0.175462070830D+01-0.158324837685D-06
    0.930123474256D+00 0.225937500000D+03-0.117394939104D+01-0.854571310611D-08
    0.196436753808D-10 0.100000000000D+01 0.210300000000D+04 0.000000000000D+00
    0.200000000000D+01 0.000000000000D+00-0.181607902050D-07 0.240000000000D+02
    0.446418000000D+06 0.400000000000D+01 0.000000000000D+00 0.000000000000D+00
23 20  5  1  6  0  0.0-0.117810908705D-03 0.306954461848D-11 0.000000000000D+00
    0.830000000000D+02-0.340625000000D+01 0.511699885783D-08 0.491354552375D-01
   -0.111758708954D-07 0.141708871815D-01 0.936537981033D-05 0.515515648460D+04
    0.453600000000D+06-0.484287738800D-07-0.646060553072D+00 0.126659870148D-06
    0.943550012040D+00 0.188937500000D+03-0.219732982594D+01-0.839927843509D-08
    0.163578242262D-09 0.100000000000D+01 0.210300000000D+04 0.000000000000D+00
    0.200000000000D+01 0.630000000000D+02-0.200234353542D-07 0.830000000000D+02
    0.446418000000D+06 0.400000000000D+01 0.000000000000D+00 0.000000000000D+00
24 20  5  1  6  0  0.0-0.124410726130D-04-0.454747350886D-12 0.000000000000D+00
    0.900000000000D+01 0.242812500000D+02 0.544272671141D-08-0.576496911239D-01
    0.132434070110D-05 0.961986649782D-02 0.620447099209D-05 0.515365080452D+04
    0.453600000000D+06 0.186264514923D-08 0.364433532394D+00 0.968575477600D-07
    0.936937258055D+00 0.243656250000D+03 0.667003784848D+00-0.863785980153D-08
   -0.236438420038D-09 0.100000000000D+01 0.210300000000D+04 0.000000000000D+00
    0.200000000000D+01 0.000000000000D+00 0.279396772385D-08 0.900000000000D+01
    0.446418000000D+06 0.400000000000D+01 0.000000000000D+00 0.000000000000D+00
